{"type": "FeatureCollection", "features": [{"type": "Feature", "geometry": {"type": "Point", "coordinates": [8.5659, 47.3815]}, "properties": {"station": "Heubeeribüel", "station_id": "Zch_Heubeeribüel", "name": "Zürich Heubeeribüel", "level": "good", "measured_at": "2026-09-28T09:00:00+01:00", "parameters": {"NO": {"latest": 9.4, "mean_24h": 0.957, "unit": "µg/m3", "level": null}, "NO2": {"latest": 30.69, "mean_24h": 6.45, "unit": "µg/m3", "level": "good"}, "NOx": {"latest": 23.59, "mean_24h": 4.14, "unit": "ppb", "level": null}, "O3": {"latest": 47.18, "mean_24h": 93.904, "unit": "µg/m3", "level": "good"}, "PM10": {"latest": 22.52, "mean_24h": 9.214, "unit": "µg/m3", "level": "good"}, "PM2.5": {"latest": 8.96, "mean_24h": 4.986, "unit": "µg/m3", "level": "good"}}}}, {"type": "Feature", "geometry": {"type": "Point", "coordinates": [8.5261, 47.3952]}, "properties": {"station": "Rosengartenstrasse", "station_id": "Zch_Rosengartenstrasse", "name": "Zürich Rosengartenstrasse", "level": "moderate", "measured_at": "2026-09-28T09:00:00+01:00", "parameters": {"NO": {"latest": 63.68, "mean_24h": 21.553, "unit": "µg/m3", "level": null}, "NO2": {"latest": 65.21, "mean_24h": 44.069, "unit": "µg/m3", "level": "moderate"}, "NOx": {"latest": 85.15, "mean_24h": 40.327, "unit": "ppb", "level": null}, "O3": {"latest": 20.36, "mean_24h": 46.023, "unit": "µg/m3", "level": "good"}, "PM10": {"latest": 39.79, "mean_24h": 15.447, "unit": "µg/m3", "level": "good"}, "PM2.5": {"latest": 13.4, "mean_24h": 7.909, "unit": "µg/m3", "level": "moderate"}}}}, {"type": "Feature", "geometry": {"type": "Point", "coordinates": [8.5235, 47.371]}, "properties": {"station": "Schimmelstrasse", "station_id": "Zch_Schimmelstrasse", "name": "Zürich Schimmelstrasse", "level": "moderate", "measured_at": "2026-09-28T09:00:00+01:00", "parameters": {"NO": {"latest": 27.37, "mean_24h": 8.352, "unit": "µg/m3", "level": null}, "NO2": {"latest": 51.65, "mean_24h": 33.286, "unit": "µg/m3", "level": "good"}, "NOx": {"latest": 48.95, "mean_24h": 24.103, "unit": "ppb", "level": null}, "O3": {"latest": 32.08, "mean_24h": 54.916, "unit": "µg/m3", "level": "good"}, "PM10": {"latest": 30.97, "mean_24h": 15.823, "unit": "µg/m3", "level": "good"}, "PM2.5": {"latest": 12.64, "mean_24h": 7.308, "unit": "µg/m3", "level": "moderate"}}}}, {"type": "Feature", "geometry": {"type": "Point", "coordinates": [8.5398, 47.3868]}, "properties": {"station": "Stampfenbachstrasse", "station_id": "Zch_Stampfenbachstrasse", "name": "Zürich Stampfenbachstrasse", "level": "moderate", "measured_at": "2026-09-28T09:00:00+01:00", "parameters": {"NO": {"latest": 15.72, "mean_24h": 6.408, "unit": "µg/m3", "level": null}, "NO2": {"latest": 48.73, "mean_24h": 26.974, "unit": "µg/m3", "level": "good"}, "NOx": {"latest": 38.08, "mean_24h": 19.244, "unit": "ppb", "level": null}, "O3": {"latest": 29.94, "mean_24h": 57.81, "unit": "µg/m3", "level": "good"}, "PM10": {"latest": 28.33, "mean_24h": 14.663, "unit": "µg/m3", "level": "good"}, "PM2.5": {"latest": 11.36, "mean_24h": 7.455, "unit": "µg/m3", "level": "moderate"}}}}]}